BEIDOU-3S IGSO-1S       
1 40549U 15019A   26183.80025122 -.00000190  00000+0  00000+0 0  9997
2 40549  49.1798 295.2769 0076860 219.1125 144.2493  1.00680073 41232
NAVSTAR 74 (USA 262)    
1 40730U 15033A   26187.66634524 -.00000008  00000+0  00000+0 0  9993
2 40730  53.9675 266.2830 0115221  30.2724 330.4554  2.00555302 80383
BEIDOU-3S M2S           
1 40748U 15037A   26188.19050975 -.00000063  00000+0  00000+0 0  9998
2 40748  54.8517 301.3582 0009203 257.5406 102.3800  1.86232412 74497
BEIDOU-3S M1S           
1 40749U 15037B   26187.32170657 -.00000061  00000+0  00000+0 0  9991
2 40749  54.8493 301.3751 0002959  63.3379 296.7169  1.86254879 74488
GSAT0206 (GALILEO 10)   
1 40890U 15045B   26184.88161184  .00000074  00000+0  00000+0 0  9993
2 40890  54.9411 221.1433 0001957 327.0241  33.0412  1.70473649 67326
BEIDOU-3S IGSO-2S       
1 40938U 15053A   26187.66468093 -.00000111  00000+0  00000+0 0  9996
2 40938  49.1915 258.5511 0065881 192.9035 166.4706  1.00255328 39546
NAVSTAR 75 (USA 265)    
1 41019U 15062A   26187.22300873 -.00000054  00000+0  00000+0 0  9996
2 41019  56.9722  30.0783 0112498 230.9268 128.1173  2.00567022 78219
GSAT-15                 
1 41028U 15065A   26188.16334796 -.00000243  00000+0  00000+0 0  9994
2 41028   0.0281 265.2061 0003892 182.6488 349.5857  1.00272688 38993
GSAT0209 (GALILEO 12)   
1 41174U 15079A   26185.63643029  .00000000  00000+0  00000+0 0  9992
2 41174  55.8369 100.7834 0005067 348.6925  11.3144  1.70473787 65079
GSAT0208 (GALILEO 11)   
1 41175U 15079B   26182.92381336 -.00000013  00000+0  00000+0 0  9997
2 41175  55.8336 100.8547 0004614 354.4374   5.5610  1.70473736 65444
IRNSS-1E                
1 41241U 16003A   26187.84511535 -.00000302  00000+0  00000+0 0  9992
2 41241  33.2756  59.4648 0019195 178.8904 102.4500  1.00269537 38273
NAVSTAR 76 (USA 266)    
1 41328U 16007A   26186.81623924 -.00000011  00000+0  00000+0 0  9991
2 41328  55.5343  88.7211 0096622 247.6354 111.3784  2.00575903 76210
COSMOS 2514 [GLONASS-M] 
1 41330U 16008A   26187.05558850 -.00000045  00000+0  00000+0 0  9994
2 41330  65.0093 312.3594 0012000 200.1284 159.8379  2.13102616 81028
BEIDOU-2 IGSO-6         
1 41434U 16021A   26177.11016981 -.00000145  00000+0  00000+0 0  9995
2 41434  60.2385  37.9495 0057558 231.0163 137.2672  1.00258926 37578
IRNSS-1G                
1 41469U 16027A   26187.66773699 -.00000321  00000+0  00000+0 0  9992
2 41469   5.2425  97.0252 0005822   7.9551 189.6780  1.00277498 37370
GSAT0211 (GALILEO 14)   
1 41549U 16030A   26185.39390706  .00000074  00000+0  00000+0 0  9991
2 41549  55.0914 221.2214 0003120 320.4697  39.5831  1.70473887 62967
GSAT0210 (GALILEO 13)   
1 41550U 16030B   26184.47800542  .00000074  00000+0  00000+0 0  9995
2 41550  55.0896 221.2446 0008960 258.8551 101.1239  1.70473811 62948
BEIDOU-2 G7             
1 41586U 16037A   26188.16502921 -.00000338  00000+0  00000+0 0  9995
2 41586   1.7663  69.4630 0006495   5.8985  19.6618  1.00266612  7097
EUTELSAT 117 WEST B     
1 41589U 16038B   26188.12190343  .00000003  00000+0  00000+0 0  9994
2 41589   0.0046 200.2094 0000252 211.9365 159.8273  1.00276935 36863
GSAT0207 (GALILEO 15)   
1 41859U 16069A   26187.10285797  .00000000  00000+0  00000+0 0  9990
2 41859  55.5088 100.5629 0004434 341.1065  18.8968  1.70473349 59729
GSAT0212 (GALILEO 16)   
1 41860U 16069B   26185.78306338  .00000000  00000+0  00000+0 0  9999
2 41860  55.5064 100.5945 0004449   2.8841 357.1371  1.70473848 59951
GSAT0213 (GALILEO 17)   
1 41861U 16069C   26187.32341799  .00000000  00000+0  00000+0 0  9992
2 41861  55.5092 100.5598 0004629 315.4701  44.5123  1.70474232 59843
GSAT0214 (GALILEO 18)   
1 41862U 16069D   26187.46967801 -.00000001  00000+0  00000+0 0  9998
2 41862  55.5080 100.5485 0003807 326.3091  33.6861  1.70473830 59971
SES-15                  
1 42709U 17026A   26188.13266279  .00000074  00000+0  00000+0 0  9998
2 42709   0.0247 323.6924 0000578 188.6340  51.3899  1.00279374  7630
QZS-2 (MICHIBIKI-2)     
1 42738U 17028A   26187.45343186 -.00000103  00000+0  00000+0 0  9993
2 42738  39.3984 242.8697 0758305 269.4935  77.5786  1.00278986  7813
QZS-3 (MICHIBIKI-3)     
1 42917U 17048A   26188.02757977 -.00000334  00000+0  00000+0 0  9991
2 42917   0.0805 222.7686 0001888 245.8122 313.2924  1.00263910 32450
COSMOS 2522 [GLONASS-M] 
1 42939U 17055A   26187.36252817  .00000112  00000+0  00000+0 0  9995
2 42939  64.0804 191.2316 0010922 240.7707 119.1473  2.13102015 68381
QZS-4 (MICHIBIKI-4)     
1 42965U 17062A   26187.74633404 -.00000307  00000+0  00000+0 0  9996
2 42965  40.0978 343.2382 0747190 268.3770  80.3868  1.00293100 31993
BEIDOU-3 M1             
1 43001U 17069A   26188.00042395 -.00000042  00000+0  00000+0 0  9994
2 43001  56.7085  62.4329 0009515 327.3765  32.6283  1.86231364 58977
BEIDOU-3 M2             
1 43002U 17069B   26187.93921887 -.00000042  00000+0  00000+0 0  9998
2 43002  56.7078  62.4704 0008592 355.0487   5.0065  1.86231060 58964
GSAT0215 (GALILEO 19)   
1 43055U 17079A   26185.61298966  .00000074  00000+0  00000+0 0  9999
2 43055  55.0696 221.0270 0003550 263.9168  96.1170  1.70474500 53282
